[{"OBJECT_NAME":"OBJECT J","OBJECT_ID":"2025-155J","EPOCH":"2026-03-09T22:09:22.347648","MEAN_MOTION":15.2758258,"ECCENTRICITY":0.00088188,"INCLINATION":97.4475,"RA_OF_ASC_NODE":37.3123,"ARG_OF_PERICENTER":150.071,"MEAN_ANOMALY":210.1035,"EPHEMERIS_TYPE":0,"CLASSIFICATION_TYPE":"U","NORAD_CAT_ID":64884,"ELEMENT_SET_NO":999,"REV_AT_EPOCH":6559,"BSTAR":0.00051444498,"MEAN_MOTION_DOT":0.00013827,"MEAN_MOTION_DDOT":0},{"OBJECT_NAME":"AVUM R\/B","OBJECT_ID":"2021-105D","EPOCH":"2026-03-09T22:34:58.119744","MEAN_MOTION":15.31894528,"ECCENTRICITY":0.0086274,"INCLINATION":74.9219,"RA_OF_ASC_NODE":283.347,"ARG_OF_PERICENTER":214.1912,"MEAN_ANOMALY":145.3726,"EPHEMERIS_TYPE":0,"CLASSIFICATION_TYPE":"U","NORAD_CAT_ID":49467,"ELEMENT_SET_NO":999,"REV_AT_EPOCH":23867,"BSTAR":0.00030152064,"MEAN_MOTION_DOT":0.00010411,"MEAN_MOTION_DDOT":0}]
